[
    {
        "Altitude(m)": 604221.2202638607,
        "Argument of Periapsis(deg)": 0.0,
        "Eccentricity": 0.0,
        "Inclination(deg)": 60.0,
        "Latitude(deg)": 14.117336735431874,
        "Longitude(deg)": 38.334126408029,
        "Mean Anomaly(deg)": 16.363600000000012,
        "RAAN(deg)": 130.0,
        "Satellite Name": "Test1 573",
        "Satellite Number": 573,
        "Semi-Major Axis(m)": 6980739.136638005,
        "Time(s)": 0
    },
    {
        "Altitude(m)": 604235.3618281748,
        "Argument of Periapsis(deg)": 0.00010418945913296404,
        "Eccentricity": 0.0,
        "Inclination(deg)": 60.0,
        "Latitude(deg)": 14.651734047761707,
        "Longitude(deg)": 38.62257238817845,
        "Mean Anomaly(deg)": 16.983706145461838,
        "RAAN(deg)": 129.99957995086024,
        "Satellite Name": "Test1 573",
        "Satellite Number": 573,
        "Semi-Major Axis(m)": 6980739.136638005,
        "Time(s)": 10
    }
]